{
  "type": "FeatureCollection",
  "features": [
    {
      "type": "Feature",
      "properties": {
        "norad_id": 25590,
        "name": "COSMOS 2361",
        "group": "musson",
        "lat": 79.66036948168998,
        "lon": 27.927625977256717,
        "alt_km": 1002.6569307147001,
        "timestamp": "2025-12-11T08:58:27.393298+00:00",
        "meta_object_name": "COSMOS 2361",
        "meta_object_id": "1998-076A",
        "meta_epoch": "2025-12-11T01:53:57.122304",
        "meta_mean_motion": 13.73217239,
        "meta_eccentricity": 0.0030049,
        "meta_inclination": 82.9338,
        "meta_ra_of_asc_node": 345.3147,
        "meta_arg_of_pericenter": 270.423,
        "meta_mean_anomaly": 155.4616,
        "meta_ephemeris_type": 0,
        "meta_classification_type": "U",
        "meta_norad_cat_id": 25590,
        "meta_element_set_no": 999,
        "meta_rev_at_epoch": 35088,
        "meta_bstar": 8.6975e-05,
        "meta_mean_motion_dot": 9.6e-07,
        "meta_mean_motion_ddot": 0,
        "tle_line1": "1 25590U 98076A   25345.07913336  .00000096  00000+0  86975-4 0  9995",
        "tle_line2": "2 25590  82.9338 345.3147 0030049 270.4230 155.4616 13.73217239350887"
      },
      "geometry": {
        "type": "Point",
        "coordinates": [
          27.927625977256717,
          79.66036948168998
        ]
      }
    },
    {
      "type": "Feature",
      "properties": {
        "norad_id": 26818,
        "name": "COSMOS 2378",
        "group": "musson",
        "lat": 29.474441897349628,
        "lon": 176.7142880123014,
        "alt_km": 970.771258999277,
        "timestamp": "2025-12-11T08:58:27.393319+00:00",
        "meta_object_name": "COSMOS 2378",
        "meta_object_id": "2001-023A",
        "meta_epoch": "2025-12-11T03:19:42.892032",
        "meta_mean_motion": 13.7414181,
        "meta_eccentricity": 0.0032314,
        "meta_inclination": 82.9273,
        "meta_ra_of_asc_node": 0.9122,
        "meta_arg_of_pericenter": 209.4154,
        "meta_mean_anomaly": 218.0387,
        "meta_ephemeris_type": 0,
        "meta_classification_type": "U",
        "meta_norad_cat_id": 26818,
        "meta_element_set_no": 999,
        "meta_rev_at_epoch": 22901,
        "meta_bstar": 5.7444e-05,
        "meta_mean_motion_dot": 6.9e-07,
        "meta_mean_motion_ddot": 0,
        "tle_line1": "1 26818U 01023A   25345.13869088  .00000069  00000+0  57444-4 0  9995",
        "tle_line2": "2 26818  82.9273   0.9122 0032314 209.4154 218.0387 13.74141810229013"
      },
      "geometry": {
        "type": "Point",
        "coordinates": [
          176.7142880123014,
          29.474441897349628
        ]
      }
    },
    {
      "type": "Feature",
      "properties": {
        "norad_id": 27436,
        "name": "COSMOS 2389",
        "group": "musson",
        "lat": -8.129875140123458,
        "lon": -53.01689683684846,
        "alt_km": 974.2943240101904,
        "timestamp": "2025-12-11T08:58:27.393333+00:00",
        "meta_object_name": "COSMOS 2389",
        "meta_object_id": "2002-026A",
        "meta_epoch": "2025-12-10T10:54:24.322752",
        "meta_mean_motion": 13.75154267,
        "meta_eccentricity": 0.00476693,
        "meta_inclination": 82.95,
        "meta_ra_of_asc_node": 308.6765,
        "meta_arg_of_pericenter": 66.9463,
        "meta_mean_anomaly": 56.1274,
        "meta_ephemeris_type": 0,
        "meta_classification_type": "U",
        "meta_norad_cat_id": 27436,
        "meta_element_set_no": 999,
        "meta_rev_at_epoch": 18117,
        "meta_bstar": 9.1929717e-05,
        "meta_mean_motion_dot": 1.04e-06,
        "meta_mean_motion_ddot": 0,
        "tle_line1": "1 27436U 02026A   25344.45444818  .00000104  00000+0  91930-4 0  9998",
        "tle_line2": "2 27436  82.9500 308.6765 0047669  66.9463  56.1274 13.75154267181173"
      },
      "geometry": {
        "type": "Point",
        "coordinates": [
          -53.01689683684846,
          -8.129875140123458
        ]
      }
    },
    {
      "type": "Feature",
      "properties": {
        "norad_id": 27818,
        "name": "COSMOS 2398",
        "group": "musson",
        "lat": -41.144917542664956,
        "lon": -92.50374782988372,
        "alt_km": 1019.5806558051017,
        "timestamp": "2025-12-11T08:58:27.393345+00:00",
        "meta_object_name": "COSMOS 2398",
        "meta_object_id": "2003-023A",
        "meta_epoch": "2025-12-11T04:28:21.553248",
        "meta_mean_motion": 13.72385495,
        "meta_eccentricity": 0.0032524,
        "meta_inclination": 82.9484,
        "meta_ra_of_asc_node": 273.8429,
        "meta_arg_of_pericenter": 115.955,
        "meta_mean_anomaly": 356.5826,
        "meta_ephemeris_type": 0,
        "meta_classification_type": "U",
        "meta_norad_cat_id": 27818,
        "meta_element_set_no": 999,
        "meta_rev_at_epoch": 12795,
        "meta_bstar": 9.1115e-05,
        "meta_mean_motion_dot": 9.9e-07,
        "meta_mean_motion_ddot": 0,
        "tle_line1": "1 27818U 03023A   25345.18636057  .00000099  00000+0  91115-4 0  9997",
        "tle_line2": "2 27818  82.9484 273.8429 0032524 115.9550 356.5826 13.72385495127956"
      },
      "geometry": {
        "type": "Point",
        "coordinates": [
          -92.50374782988372,
          -41.144917542664956
        ]
      }
    },
    {
      "type": "Feature",
      "properties": {
        "norad_id": 28380,
        "name": "COSMOS 2407",
        "group": "musson",
        "lat": 43.89746214953085,
        "lon": 27.076027009323372,
        "alt_km": 966.5092466690485,
        "timestamp": "2025-12-11T08:58:27.393356+00:00",
        "meta_object_name": "COSMOS 2407",
        "meta_object_id": "2004-028A",
        "meta_epoch": "2025-12-11T03:38:19.095360",
        "meta_mean_motion": 13.7631341,
        "meta_eccentricity": 0.0040381,
        "meta_inclination": 82.9609,
        "meta_ra_of_asc_node": 214.0685,
        "meta_arg_of_pericenter": 59.155,
        "meta_mean_anomaly": 55.0944,
        "meta_ephemeris_type": 0,
        "meta_classification_type": "U",
        "meta_norad_cat_id": 28380,
        "meta_element_set_no": 999,
        "meta_rev_at_epoch": 7401,
        "meta_bstar": 6.7057e-05,
        "meta_mean_motion_dot": 8.1e-07,
        "meta_mean_motion_ddot": 0,
        "tle_line1": "1 28380U 04028A   25345.15160990  .00000081  00000+0  67057-4 0  9992",
        "tle_line2": "2 28380  82.9609 214.0685 0040381  59.1550  55.0944 13.76313410 74012"
      },
      "geometry": {
        "type": "Point",
        "coordinates": [
          27.076027009323372,
          43.89746214953085
        ]
      }
    },
    {
      "type": "Feature",
      "properties": {
        "norad_id": 28521,
        "name": "COSMOS 2414",
        "group": "musson",
        "lat": -18.418591615486207,
        "lon": -176.6692762223963,
        "alt_km": 969.3235884416754,
        "timestamp": "2025-12-11T08:58:27.393368+00:00",
        "meta_object_name": "COSMOS 2414",
        "meta_object_id": "2005-002A",
        "meta_epoch": "2025-12-10T19:13:20.566272",
        "meta_mean_motion": 13.87902537,
        "meta_eccentricity": 0.0040783,
        "meta_inclination": 82.9493,
        "meta_ra_of_asc_node": 186.1261,
        "meta_arg_of_pericenter": 145.1098,
        "meta_mean_anomaly": 215.2752,
        "meta_ephemeris_type": 0,
        "meta_classification_type": "U",
        "meta_norad_cat_id": 28521,
        "meta_element_set_no": 999,
        "meta_rev_at_epoch": 5768,
        "meta_bstar": 6.9471423e-05,
        "meta_mean_motion_dot": 9.9e-07,
        "meta_mean_motion_ddot": 0,
        "tle_line1": "1 28521U 05002A   25344.80093248  .00000099  00000+0  69471-4 0  9995",
        "tle_line2": "2 28521  82.9493 186.1261 0040783 145.1098 215.2752 13.87902537 57685"
      },
      "geometry": {
        "type": "Point",
        "coordinates": [
          -176.6692762223963,
          -18.418591615486207
        ]
      }
    },
    {
      "type": "Feature",
      "properties": {
        "norad_id": 32052,
        "name": "COSMOS 2429",
        "group": "musson",
        "lat": 1.2390004864131694,
        "lon": 164.1631692998518,
        "alt_km": 1005.0180691437154,
        "timestamp": "2025-12-11T08:58:27.393379+00:00",
        "meta_object_name": "COSMOS 2429",
        "meta_object_id": "2007-038A",
        "meta_epoch": "2025-12-11T02:52:21.112320",
        "meta_mean_motion": 13.75149145,
        "meta_eccentricity": 0.003932,
        "meta_inclination": 82.9803,
        "meta_ra_of_asc_node": 344.5032,
        "meta_arg_of_pericenter": 42.2771,
        "meta_mean_anomaly": 318.1405,
        "meta_ephemeris_type": 0,
        "meta_classification_type": "U",
        "meta_norad_cat_id": 32052,
        "meta_element_set_no": 999,
        "meta_rev_at_epoch": 91580,
        "meta_bstar": 7.4294e-05,
        "meta_mean_motion_dot": 8.7e-07,
        "meta_mean_motion_ddot": 0,
        "tle_line1": "1 32052U 07038A   25345.11968880  .00000087  00000+0  74294-4 0  9994",
        "tle_line2": "2 32052  82.9803 344.5032 0039320  42.2771 318.1405 13.75149145915800"
      },
      "geometry": {
        "type": "Point",
        "coordinates": [
          164.1631692998518,
          1.2390004864131694
        ]
      }
    },
    {
      "type": "Feature",
      "properties": {
        "norad_id": 35635,
        "name": "COSMOS 2454",
        "group": "musson",
        "lat": 21.480976836951946,
        "lon": 172.4694451754946,
        "alt_km": 920.1809137251248,
        "timestamp": "2025-12-11T08:58:27.393389+00:00",
        "meta_object_name": "COSMOS 2454",
        "meta_object_id": "2009-039A",
        "meta_epoch": "2025-12-11T00:46:45.675840",
        "meta_mean_motion": 13.89928222,
        "meta_eccentricity": 0.0020475,
        "meta_inclination": 82.9554,
        "meta_ra_of_asc_node": 169.9392,
        "meta_arg_of_pericenter": 78.3145,
        "meta_mean_anomaly": 36.0602,
        "meta_ephemeris_type": 0,
        "meta_classification_type": "U",
        "meta_norad_cat_id": 35635,
        "meta_element_set_no": 999,
        "meta_rev_at_epoch": 83126,
        "meta_bstar": 6.5659e-05,
        "meta_mean_motion_dot": 9.7e-07,
        "meta_mean_motion_ddot": 0,
        "tle_line1": "1 35635U 09039A   25345.03247310  .00000097  00000+0  65659-4 0  9992",
        "tle_line2": "2 35635  82.9554 169.9392 0020475  78.3145  36.0602 13.89928222831265"
      },
      "geometry": {
        "type": "Point",
        "coordinates": [
          172.4694451754946,
          21.480976836951946
        ]
      }
    },
    {
      "type": "Feature",
      "properties": {
        "norad_id": 36519,
        "name": "COSMOS 2463",
        "group": "musson",
        "lat": 27.977066327732565,
        "lon": -156.0463477031835,
        "alt_km": 1012.1062727313547,
        "timestamp": "2025-12-11T08:58:27.393399+00:00",
        "meta_object_name": "COSMOS 2463",
        "meta_object_id": "2010-017A",
        "meta_epoch": "2025-12-11T05:01:54.171264",
        "meta_mean_motion": 13.71649038,
        "meta_eccentricity": 0.0034821,
        "meta_inclination": 82.9614,
        "meta_ra_of_asc_node": 27.8371,
        "meta_arg_of_pericenter": 292.4602,
        "meta_mean_anomaly": 128.7739,
        "meta_ephemeris_type": 0,
        "meta_classification_type": "U",
        "meta_norad_cat_id": 36519,
        "meta_element_set_no": 999,
        "meta_rev_at_epoch": 78216,
        "meta_bstar": 5.9275e-05,
        "meta_mean_motion_dot": 6.8e-07,
        "meta_mean_motion_ddot": 0,
        "tle_line1": "1 36519U 10017A   25345.20965476  .00000068  00000+0  59275-4 0  9996",
        "tle_line2": "2 36519  82.9614  27.8371 0034821 292.4602 128.7739 13.71649038782160"
      },
      "geometry": {
        "type": "Point",
        "coordinates": [
          -156.0463477031835,
          27.977066327732565
        ]
      }
    }
  ]
}